ONEWEB-0705             
1 61610U 24188S   25288.50138043  .00000759  00000+0  21378-2 0  9999
2 61610  87.8762  85.0262 0002740  77.3776 282.7657 13.10374640 43415
ONEWEB-0706             
1 61611U 24188T   25288.48640717 -.00000091  00000+0 -29784-3 0  9994
2 61611  87.8755  85.0544 0002308  90.4789 269.6603 13.10376569 51338
ONEWEB-0707             
1 61612U 24188U   25288.49305154  .00000168  00000+0  44439-3 0  9996
2 61612  87.8767  85.0226 0002286  93.4234 266.7155 13.10376379 51274
ONEWEB-0708             
1 61613U 24188V   25288.66403889  .00000724  00000+0  20363-2 0  9997
2 61613  87.8760  85.0305 0002329  82.1699 277.9693 13.10371640 51271
