[{"OBJECT_NAME":"ONEWEB-0705","OBJECT_ID":"2024-188S","EPOCH":"2025-10-15T12:01:59.269152","MEAN_MOTION":13.1037464,"ECCENTRICITY":0.000274,"INCLINATION":87.8762,"RA_OF_ASC_NODE":85.0262,"ARG_OF_PERICENTER":77.3776,"MEAN_ANOMALY":282.7657,"EPHEMERIS_TYPE":0,"CLASSIFICATION_TYPE":"U","NORAD_CAT_ID":61610,"ELEMENT_SET_NO":999,"REV_AT_EPOCH":4341,"BSTAR":0.0021378283,"MEAN_MOTION_DOT":7.59e-6,"MEAN_MOTION_DDOT":0},{"OBJECT_NAME":"ONEWEB-0706","OBJECT_ID":"2024-188T","EPOCH":"2025-10-15T11:40:25.579488","MEAN_MOTION":13.10376569,"ECCENTRICITY":0.0002308,"INCLINATION":87.8755,"RA_OF_ASC_NODE":85.0544,"ARG_OF_PERICENTER":90.4789,"MEAN_ANOMALY":269.6603,"EPHEMERIS_TYPE":0,"CLASSIFICATION_TYPE":"U","NORAD_CAT_ID":61611,"ELEMENT_SET_NO":999,"REV_AT_EPOCH":5133,"BSTAR":-0.00029784041,"MEAN_MOTION_DOT":-9.1e-7,"MEAN_MOTION_DDOT":0},{"OBJECT_NAME":"ONEWEB-0707","OBJECT_ID":"2024-188U","EPOCH":"2025-10-15T11:49:59.653056","MEAN_MOTION":13.10376379,"ECCENTRICITY":0.00022865,"INCLINATION":87.8767,"RA_OF_ASC_NODE":85.0226,"ARG_OF_PERICENTER":93.4234,"MEAN_ANOMALY":266.7155,"EPHEMERIS_TYPE":0,"CLASSIFICATION_TYPE":"U","NORAD_CAT_ID":61612,"ELEMENT_SET_NO":999,"REV_AT_EPOCH":5127,"BSTAR":0.00044438567,"MEAN_MOTION_DOT":1.68e-6,"MEAN_MOTION_DDOT":0},{"OBJECT_NAME":"ONEWEB-0708","OBJECT_ID":"2024-188V","EPOCH":"2025-10-15T15:56:12.960096","MEAN_MOTION":13.1037164,"ECCENTRICITY":0.00023292,"INCLINATION":87.876,"RA_OF_ASC_NODE":85.0305,"ARG_OF_PERICENTER":82.1699,"MEAN_ANOMALY":277.9693,"EPHEMERIS_TYPE":0,"CLASSIFICATION_TYPE":"U","NORAD_CAT_ID":61613,"ELEMENT_SET_NO":999,"REV_AT_EPOCH":5127,"BSTAR":0.0020362844,"MEAN_MOTION_DOT":7.24e-6,"MEAN_MOTION_DDOT":0}]
